[{"OBJECT_NAME":"TYVAK-182A","OBJECT_ID":"2021-034D","EPOCH":"2026-03-09T17:04:17.866560","MEAN_MOTION":15.0515042,"ECCENTRICITY":0.00048625,"INCLINATION":97.5843,"RA_OF_ASC_NODE":129.3711,"ARG_OF_PERICENTER":316.565,"MEAN_ANOMALY":43.5193,"EPHEMERIS_TYPE":0,"CLASSIFICATION_TYPE":"U","NORAD_CAT_ID":48271,"ELEMENT_SET_NO":999,"REV_AT_EPOCH":26486,"BSTAR":0.00050672592,"MEAN_MOTION_DOT":7.163e-5,"MEAN_MOTION_DDOT":0},{"OBJECT_NAME":"STARLINK-5781","OBJECT_ID":"2023-042AW","EPOCH":"2026-03-09T23:08:14.919648","MEAN_MOTION":15.02522888,"ECCENTRICITY":0.00013184,"INCLINATION":43.0042,"RA_OF_ASC_NODE":41.4307,"ARG_OF_PERICENTER":280.8515,"MEAN_ANOMALY":79.2179,"EPHEMERIS_TYPE":0,"CLASSIFICATION_TYPE":"U","NORAD_CAT_ID":56030,"ELEMENT_SET_NO":999,"REV_AT_EPOCH":16310,"BSTAR":0.00014296277,"MEAN_MOTION_DOT":1.727e-5,"MEAN_MOTION_DDOT":0}]
